C/2020 H4 (Leonard),e,84.5143,307.7357,117.5986,48.12083,0.0029526,0.98073810,0.0000,08/29.5253/2020,2000,g 15.0,3.2
# From MPEC 2021-N06
C/2020 H5 (Robinson),e,70.2231,210.6343,326.4102,3549,0.0000047,0.99736648,0.0000,12/12.1403/2020,2000,g  5.0,4.0
# From MPEC 2021-N06
C/2020 H6 (ATLAS),h,10/01.0683/2021,79.9638,213.7056,20.3473,1.000796,4.702888,2000,8.0,3.2
# From MPEC 2020-KB7
C/2020 H7 (Lemmon),e,135.9235,323.5194,82.6780,1405,0.0000187,0.99685380,0.0000,06/02.9510/2020,2000,g 11.0,4.0
# From MPEC 2021-N06
C/2020 H8 (PANSTARRS),e,99.6457,68.4084,128.9349,599.0036,0.0000672,0.99219490,0.0000,06/04.4434/2020,2000,g 10.5,4.0
# From MPEC 2020-L06
A/2020 H9,e,137.8782,213.1309,312.9050,550.6952,0.0000763,0.99531602,0.0000,12/21.4046/2019,2000,g 18.0,2.0
# From MPEC 2021-N06
C/2020 J1 (SONEAR),h,04/18.5837/2021,142.2940,226.5819,341.7510,1.000272,3.355140,2000,8.5,3.2
# From MPEC 2021-N06
C/2020 K1 (PANSTARRS),e,89.6546,94.3661,213.9629,9220,0.0000011,0.99966655,0.0000,05/09.1169/2023,2000,g  5.5,4.0
# From MPEC 2021-N06
C/2020 K2 (PANSTARRS),h,08/05.4566/2020,91.0378,288.3469,67.3092,1.002620,8.878588,2000,10.8,4.0
# From MPEC 2020-KF9
C/2020 K3 (Leonard),p,06/01.0032/2020,129.0152,64.4924,1.583069,28.3546,2000,14.5,4.0
# From MPEC 2020-L06
C/2020 K4 (PANSTARRS),e,125.5653,264.1007,308.7801,23.87541,0.0084485,0.92656242,4.1591,07/09.0/2021,2000,g 16.5,4.0
# From MPC xxxxx
C/2020 K5 (PANSTARRS),h,06/05.5713/2021,67.1518,86.1641,249.5893,1.001505,1.535639,2000,11.0,4.0
# From MPEC 2021-N06
C/2020 K6 (Rankin),h,09/15.3518/2021,103.6432,291.5260,44.2856,1.002984,5.868339,2000,8.0,4.0
# From MPEC 2020-L09
C/2020 K7 (PANSTARRS),p,10/05.3027/2021,34.5520,60.8413,5.644571,287.4776,2000,8.0,4.0
# From MPC xxxxx
C/2020 K8 (Catalina-ATLAS),h,09/14.5198/2020,31.4186,181.5230,260.0430,1.000168,0.474382,2000,15.0,3.2
# From MPEC 2021-BE3
P/2020 K9 (Lemmon-PANSTARRS),e,23.2100,166.2406,196.8897,4.199060,0.1145449,0.32140067,16.8529,07/09.0/2021,2000,g 12.5,4.0
# From MPEC 2020-K19
P/2020 M1 (PANSTARRS),e,8.6670,142.8632,68.8485,5.157140,0.0841571,0.48174449,47.2871,07/09.0/2021,2000,g 14.5,4.0
# From MPEC 2021-N06
C/2020 M3 (ATLAS),e,23.4721,71.2442,328.4531,26.87160,0.0070756,0.95280529,1.8139,07/09.0/2021,2000,g 14.5,4.0
# From MPEC 2021-N06
A/2020 M4,e,160.1264,348.6248,104.6463,8973,0.0000012,0.99933665,0.0000,11/23.9358/2020,2000,g 14.5,2.0
# From MPEC 2021-N06
C/2020 M5 (ATLAS),e,93.2225,352.0954,126.3393,46393,0.0000001,0.99993524,0.0000,08/19.8820/2021,2000,g  9.0,4.0
# From MPEC 2021-N06
C/2020 N1 (PANSTARRS),h,03/12.2221/2021,29.7032,279.9806,186.7683,1.000564,1.320675,2000,12.5,4.0
# From MPC xxxxx
C/2020 N2 (ATLAS),e,161.0340,257.0821,331.2383,101.5421,0.0009632,0.98233168,0.0000,08/23.7164/2020,2000,g 16.0,3.2
# From MPEC 2020-SI8
P/2020 O1 (Lemmon-PANSTARRS),e,5.2259,175.9772,104.5341,2.644503,0.2291860,0.11949630,99.0767,07/09.0/2021,2000,g 15.5,4.0
# From MPEC 2021-N06
C/2020 O2 (Amaral),h,08/28.4752/2021,71.7471,256.7558,10.2911,1.002492,4.862174,2000,8.0,3.2
# From MPEC 2020-SI8
P/2020 O3 (PANSTARRS),e,8.4410,266.8453,81.5566,4.653398,0.0981858,0.10457303,15.6856,07/09.0/2021,2000,g 12.0,4.0
# From MPEC 2021-BE3
C/2020 P1 (NEOWISE),h,10/20.1799/2020,45.0623,53.5317,8.8921,1.000272,0.342068,2000,14.0,3.2
# From MPC xxxxx
C/2020 P3 (ATLAS),e,61.8849,19.4844,82.2483,7662,0.0000015,0.99911094,0.0000,04/20.8665/2021,2000,g  6.0,4.0
# From MPC xxxxx
C/2020 PV6 (PANSTARRS),e,128.2395,329.1439,71.3755,41.78698,0.0036487,0.94506289,359.7118,07/09.0/2021,2000,g 10.0,4.0
# From MPEC 2021-N06
C/2020 Q1 (Borisov),e,142.9167,52.4136,9.9053,59.13608,0.0021673,0.97776603,0.0000,08/14.6439/2020,2000,g 14.0,4.0
# From MPEC 2021-BE3
C/2020 R2 (PANSTARRS),e,53.2240,195.0924,211.7071,410.5309,0.0001185,0.98857034,0.0000,02/24.2954/2022,2000,g  9.0,4.0
# From MPEC 2021-N06
C/2020 R4 (ATLAS),e,164.4632,323.2736,46.7142,97.49954,0.0010238,0.98944970,0.0000,03/01.9388/2021,2000,g 13.5,4.0
# From MPEC 2020-W26
P/2020 R5 (PANSTARRS),e,11.4537,272.9737,82.3808,4.980778,0.0886663,0.31462876,36.0381,07/09.0/2021,2000,g  9.5,6.0
# From MPEC 2020-W26
C/2020 R6 (Rankin),e,82.8216,12.1745,271.9556,550.0373,0.0000764,0.99431591,0.0000,09/10.1679/2019,2000,g 11.0,4.0
# From MPC xxxxx
C/2020 R7 (ATLAS),e,114.8922,268.2796,347.8229,7976,0.0000014,0.99962934,0.0000,09/16.2578/2022,2000,g  7.0,3.2
# From MPEC 2021-BE3
P/2020 S1 (PANSTARRS),e,13.7340,129.4590,254.8950,5.981521,0.0673731,0.50725319,11.6548,07/09.0/2021,2000,g 14.0,4.0
# From MPEC 2021-BE3
C/2020 S2 (PANSTARRS),e,22.3975,197.6812,202.2755,10.18740,0.0303116,0.82762348,6.0334,07/09.0/2021,2000,g 17.0,4.0
# From MPEC 2021-N06
C/2020 S3 (Erasmus),e,19.8697,222.9603,349.8990,189.1437,0.0003789,0.99789446,0.0000,12/12.6803/2020,2000,g 13.5,3.2
# From MPC xxxxx
C/2020 S4 (PANSTARRS),e,20.5747,117.7138,21.0438,73930,0.0000000,0.99995443,0.0000,02/09.4984/2023,2000,g  8.5,3.2
# From MPEC 2021-BE3
P/2020 S5 (PANSTARRS),e,12.3540,315.9990,53.0486,4.049676,0.1209410,0.33847515,40.4532,07/09.0/2021,2000,g 14.5,4.0
# From MPC xxxxx
P/2020 S6 (Leonard),e,15.4588,242.5661,176.6599,3.599713,0.1443119,0.47918620,32.8131,07/09.0/2021,2000,g 16.0,4.0
# From MPEC 2021-BE3
P/2020 S7 (PANSTARRS),e,16.0921,328.0183,40.4279,5.023451,0.0875389,0.41052651,20.3818,07/09.0/2021,2000,g 14.5,4.0
# From MPEC 2021-N06
C/2020 S8 (Lemmon),e,108.5197,24.0518,160.3355,276.2266,0.0002147,0.99144237,0.0000,04/10.9335/2021,2000,g 12.5,4.0
# From MPEC 2021-N06
C/2020 T2 (Palomar),e,27.8730,83.0482,150.3837,311.4703,0.0001793,0.99340328,0.0000,07/11.1489/2021,2000,g 11.0,3.2
# From MPEC 2021-N06
P/2020 T3 (PANSTARRS),e,7.2953,74.0171,357.0404,3.517501,0.1494007,0.59159710,25.3284,07/09.0/2021,2000,g 18.0,3.2
# From MPEC 2021-N06
C/2020 T4 (PANSTARRS),h,07/05.2523/2021,83.8140,50.6202,79.6058,1.000077,2.191839,2000,13.0,3.2
# From MPEC 2021-BE3
C/2020 T5 (Lemmon),e,66.6001,237.8616,90.2992,846.7858,0.0000400,0.99776907,0.0000,10/09.6268/2020,2000,g 16.0,4.0
# From MPEC 2021-N06
P/2020 U2 (PANSTARRS),e,6.4211,342.8997,84.6467,3.777715,0.1342333,0.51060748,26.2151,07/09.0/2021,2000,g 18.0,4.0
# From MPC xxxxx
C/2020 U3 (Rankin),e,30.1760,282.6798,124.2661,65.05851,0.0018782,0.96501321,0.2874,07/09.0/2021,2000,g 15.0,4.0
# From MPC xxxxx
C/2020 U4 (PANSTARRS),h,04/07.7786/2022,167.0368,120.0194,69.5189,1.002059,5.353881,2000,7.0,4.0
# From MPC xxxxx
C/2020 U5 (PANSTARRS),e,97.2750,107.3418,75.4122,11766,0.0000008,0.99968079,0.0000,04/27.8336/2022,2000,g  8.0,4.0
# From MPEC 2021-N06
C/2020 V2 (ZTF),h,05/08.4283/2023,131.6013,212.3462,162.3858,1.001365,2.228194,2000,4.9,4.0
# From MPEC 2021-N06
P/2020 V3 (PANSTARRS),e,23.0318,198.2757,249.3178,8.365276,0.0407365,0.25522300,6.1283,07/09.0/2021,2000,g  8.3,4.0
# From MPC xxxxx
P/2020 V4 (Rankin),e,14.2431,203.5077,256.9973,9.342875,0.0345130,0.44893436,359.6919,07/09.0/2021,2000,g  9.0,4.0
# From MPEC 2021-BE3
P/2020 W1 (Rankin),e,10.7919,124.2596,264.8243,7.198965,0.0510269,0.26545795,23.4802,07/09.0/2021,2000,g 10.0,4.0
# From MPEC 2021-BE3
C/2020 W5 (Lemmon),h,11/30.1002/2020,88.5842,75.5090,24.4809,1.000920,3.364226,2000,15.0,4.0
# From MPEC 2021-BE3
P/2020 X1 (ATLAS),e,31.6728,56.0331,323.5536,4.522122,0.1024922,0.36454154,36.1228,07/09.0/2021,2000,g 13.0,4.0
# From MPEC 2021-N06
C/2020 X2 (ATLAS),e,18.1905,105.4580,347.3431,16.39466,0.0148474,0.76648758,3.4919,07/09.0/2021,2000,g 10.6,4.0
# From MPEC 2021-N06
C/2020 X4 (Leonard),e,80.5179,161.8946,139.9710,43.18981,0.0034724,0.87946005,0.8195,07/09.0/2021,2000,g  9.0,4.0
# From MPEC 2021-N06
C/2020 Y2 (ATLAS),e,101.2898,26.5075,266.0978,1233,0.0000228,0.99746022,0.0000,06/17.6550/2022,2000,g  6.5,4.0
# From MPEC 2021-N06
C/2020 Y3 (ATLAS),e,83.0992,191.4287,342.0406,150.3170,0.0005348,0.98670004,0.0000,12/03.4779/2020,2000,g 13.5,4.0
# From MPEC 2021-N06
C/2021 A1 (Leonard),h,01/03.2957/2022,132.6859,255.8900,225.0907,1.000079,0.615203,2000,8.5,4.0
# From MPEC 2021-N06
C/2021 A2 (NEOWISE),e,106.9777,125.2379,338.8434,254.4644,0.0002428,0.99444753,0.0000,01/22.6275/2021,2000,g 13.5,4.0
# From MPC xxxxx
C/2021 A4 (NEOWISE),e,111.5711,307.0840,204.6613,43.00407,0.0034949,0.97336257,0.0000,03/20.0317/2021,2000,g 16.0,4.0
# From MPEC 2021-BE3
P/2021 A5 (PANSTARRS),e,18.1881,328.7674,61.1029,3.046147,0.1853863,0.13966412,44.3978,07/09.0/2021,2000,g 15.0,4.0
# From MPC xxxxx
C/2021 A6 (PANSTARRS),e,75.6099,164.0791,351.7472,11828,0.0000008,0.99932964,0.0000,05/05.0028/2021,2000,g  7.0,4.0
# From MPEC 2021-N06
C/2021 A7 (NEOWISE),e,78.1493,154.5191,356.0623,6728,0.0000018,0.99970754,0.0000,07/15.3233/2021,2000,g 10.0,4.0
# From MPC xxxxx
C/2021 A9 (PANSTARRS),h,12/01.5439/2023,158.0290,314.8407,211.4825,1.004374,7.757778,2000,6.0,4.0
# From MPEC 2021-N06
C/2021 A10 (NEOWISE),e,151.5249,188.3494,82.2684,93.03591,0.0010983,0.98636496,0.0000,03/15.2651/2021,2000,g 19.0,4.0
# From MPC xxxxx
C/2021 B2 (PANSTARRS),e,38.0938,120.5556,334.9690,342.2600,0.0001557,0.99265733,0.0000,05/04.2648/2021,2000,g 14.0,4.0
# From MPEC 2021-N06
C/2021 B3 (NEOWISE),e,119.4881,67.2869,293.5589,34.95872,0.0047684,0.93820840,0.5726,07/09.0/2021,2000,g 13.5,4.0
# From MPC xxxxx
C/2021 C1 (Rankin),h,12/07.1598/2020,143.0419,186.8924,336.3157,1.000036,3.481424,2000,11.5,4.0
# From MPC xxxxx
P/2021 C2 (PANSTARRS),e,21.9268,66.4932,78.8021,9.538699,0.0334557,0.48733465,4.5030,07/09.0/2021,2000,g 12.0,4.0
# From MPEC 2021-N06
C/2021 C3 (Catalina),e,122.1629,181.9209,357.1498,63.33285,0.0019555,0.96405555,0.2866,07/09.0/2021,2000,g 14.0,4.0
# From MPEC 2021-N06
C/2021 C4 (ATLAS),e,132.8427,194.2764,320.2317,5516,0.0000024,0.99918344,0.0000,01/17.0567/2021,2000,g  9.0,4.0
# From MPEC 2021-N06
C/2021 C5 (PANSTARRS),e,50.7874,323.6910,270.9158,7905,0.0000014,0.99958995,0.0000,02/10.9656/2023,2000,g  9.0,4.0
# From MPEC 2021-N06
C/2021 C6 (Lemmon),h,11/13.3404/2021,164.6258,332.1553,203.5664,1.002040,3.271282,2000,12.0,4.0
# From MPEC 2021-N06
C/2021 D1 (SWAN),e,31.4608,311.2713,72.2249,96.69359,0.0010366,0.99067355,0.0000,02/27.6110/2021,2000,g 13.0,4.0
